ONEWEB-0528             
1 54643U 22166B   23345.75313307 -.00000118  00000+0 -31839-3 0  9993
2 54643  87.9256  66.8096 0001704 110.2901 249.8416 13.21824656 50212
ONEWEB-0539             
1 54644U 22166C   23345.78940680  .00000105  00000+0  22356-3 0  9995
2 54644  87.9260  66.8023 0001647 104.3750 255.7567 13.21824605 50217
ONEWEB-0540             
1 54645U 22166D   23345.78388334  .00000042  00000+0  69144-4 0  9995
2 54645  87.9259  66.8305 0001515 103.0602 257.0701 13.21824407 50209
ONEWEB-0542             
1 54646U 22166E   23345.72317423  .00000026  00000+0  31272-4 0  9994
2 54646  87.9257  66.8158 0001698  83.4219 276.7108 13.21825570 50202
ONEWEB-0545             
1 54647U 22166F   23345.76574565 -.00000034  00000+0 -11314-3 0  9996
2 54647  87.9248  66.8472 0001291  94.1212 266.0069 13.21827791 50174
ONEWEB-0580             
1 54648U 22166G   23345.73894266  .00000049  00000+0  87156-4 0  9999
2 54648  87.9255  66.8065 0001689  82.8926 277.2400 13.21826886 50210
ONEWEB-0582             
1 54649U 22166H   23345.78153220  .00000063  00000+0  12079-3 0  9990
2 54649  87.9258  66.8397 0001396 106.9060 253.2227 13.21827967 50193
ONEWEB-0583             
1 54650U 22166J   23345.79255723  .00000038  00000+0  60652-4 0  9997
2 54650  87.9251  66.8428 0001924 117.4908 242.6422 13.21826376 50202
